{
  "type": "FeatureCollection",
  "features": [
    {
      "type": "Feature",
      "properties": {
        "norad_id": 51444,
        "name": "CSG-2",
        "group": "resource",
        "lat": 80.55188550968937,
        "lon": 109.23181472805321,
        "alt_km": 614.0630972086255,
        "timestamp": "2025-12-10T04:57:29.263474+00:00",
        "meta_object_name": "CSG-2",
        "meta_object_id": "2022-008A",
        "meta_epoch": "2025-12-09T20:28:33.241728",
        "meta_mean_motion": 14.82158173,
        "meta_eccentricity": 0.0001494,
        "meta_inclination": 97.8803,
        "meta_ra_of_asc_node": 165.2195,
        "meta_arg_of_pericenter": 82.4753,
        "meta_mean_anomaly": 277.663,
        "meta_ephemeris_type": 0,
        "meta_classification_type": "U",
        "meta_norad_cat_id": 51444,
        "meta_element_set_no": 999,
        "meta_rev_at_epoch": 20854,
        "meta_bstar": 8.7475e-05,
        "meta_mean_motion_dot": 6.44e-06,
        "meta_mean_motion_ddot": 0,
        "tle_line1": "1 51444U 22008A   25343.85316252  .00000644  00000+0  87475-4 0  9997",
        "tle_line2": "2 51444  97.8803 165.2195 0001494  82.4753 277.6630 14.82158173208541"
      },
      "geometry": {
        "type": "Point",
        "coordinates": [
          109.23181472805321,
          80.55188550968937
        ]
      }
    },
    {
      "type": "Feature",
      "properties": {
        "norad_id": 52912,
        "name": "GAOFEN-12 03",
        "group": "resource",
        "lat": 24.258718689238073,
        "lon": -131.94988045947085,
        "alt_km": 628.7797082175593,
        "timestamp": "2025-12-10T04:57:29.263485+00:00",
        "meta_object_name": "GAOFEN-12 03",
        "meta_object_id": "2022-069A",
        "meta_epoch": "2025-12-09T20:43:57.046944",
        "meta_mean_motion": 14.79599552,
        "meta_eccentricity": 0.0002285,
        "meta_inclination": 97.848,
        "meta_ra_of_asc_node": 231.2791,
        "meta_arg_of_pericenter": 65.9405,
        "meta_mean_anomaly": 294.2046,
        "meta_ephemeris_type": 0,
        "meta_classification_type": "U",
        "meta_norad_cat_id": 52912,
        "meta_element_set_no": 999,
        "meta_rev_at_epoch": 18661,
        "meta_bstar": 0.00029386,
        "meta_mean_motion_dot": 2.151e-05,
        "meta_mean_motion_ddot": 0,
        "tle_line1": "1 52912U 22069A   25343.86385471  .00002151  00000+0  29386-3 0  9996",
        "tle_line2": "2 52912  97.8480 231.2791 0002285  65.9405 294.2046 14.79599552186613"
      },
      "geometry": {
        "type": "Point",
        "coordinates": [
          -131.94988045947085,
          24.258718689238073
        ]
      }
    },
    {
      "type": "Feature",
      "properties": {
        "norad_id": 54754,
        "name": "SWOT",
        "group": "resource",
        "lat": 2.312626567970051,
        "lon": -69.0820315341102,
        "alt_km": 895.7454036271329,
        "timestamp": "2025-12-10T04:57:29.263495+00:00",
        "meta_object_name": "SWOT",
        "meta_object_id": "2022-173A",
        "meta_epoch": "2025-12-09T20:22:20.511264",
        "meta_mean_motion": 14.00174088,
        "meta_eccentricity": 3.34e-05,
        "meta_inclination": 77.6104,
        "meta_ra_of_asc_node": 290.8921,
        "meta_arg_of_pericenter": 121.0723,
        "meta_mean_anomaly": 239.0462,
        "meta_ephemeris_type": 0,
        "meta_classification_type": "U",
        "meta_norad_cat_id": 54754,
        "meta_element_set_no": 999,
        "meta_rev_at_epoch": 15265,
        "meta_bstar": 6.1159e-05,
        "meta_mean_motion_dot": 8.8e-07,
        "meta_mean_motion_ddot": 0,
        "tle_line1": "1 54754U 22173A   25343.84884851  .00000088  00000+0  61159-4 0  9994",
        "tle_line2": "2 54754  77.6104 290.8921 0000334 121.0723 239.0462 14.00174088152657"
      },
      "geometry": {
        "type": "Point",
        "coordinates": [
          -69.0820315341102,
          2.312626567970051
        ]
      }
    },
    {
      "type": "Feature",
      "properties": {
        "norad_id": 57654,
        "name": "GAOFEN-12 04",
        "group": "resource",
        "lat": -13.388122383217718,
        "lon": 78.1053362476495,
        "alt_km": 635.39363365197,
        "timestamp": "2025-12-10T04:57:29.263505+00:00",
        "meta_object_name": "GAOFEN-12 04",
        "meta_object_id": "2023-123A",
        "meta_epoch": "2025-12-09T21:35:42.428832",
        "meta_mean_motion": 14.79687972,
        "meta_eccentricity": 0.0001347,
        "meta_inclination": 97.9119,
        "meta_ra_of_asc_node": 259.7001,
        "meta_arg_of_pericenter": 72.1181,
        "meta_mean_anomaly": 288.0178,
        "meta_ephemeris_type": 0,
        "meta_classification_type": "U",
        "meta_norad_cat_id": 57654,
        "meta_element_set_no": 999,
        "meta_rev_at_epoch": 12463,
        "meta_bstar": 0.00033269,
        "meta_mean_motion_dot": 2.447e-05,
        "meta_mean_motion_ddot": 0,
        "tle_line1": "1 57654U 23123A   25343.89979663  .00002447  00000+0  33269-3 0  9994",
        "tle_line2": "2 57654  97.9119 259.7001 0001347  72.1181 288.0178 14.79687972124634"
      },
      "geometry": {
        "type": "Point",
        "coordinates": [
          78.1053362476495,
          -13.388122383217718
        ]
      }
    },
    {
      "type": "Feature",
      "properties": {
        "norad_id": 59065,
        "name": "PARS 1",
        "group": "resource",
        "lat": 31.989143826265153,
        "lon": -49.61105187376429,
        "alt_km": 435.86877675944834,
        "timestamp": "2025-12-10T04:57:29.263515+00:00",
        "meta_object_name": "PARS 1",
        "meta_object_id": "2024-039Q",
        "meta_epoch": "2025-12-09T21:01:32.715840",
        "meta_mean_motion": 15.40873892,
        "meta_eccentricity": 0.0012677,
        "meta_inclination": 97.4638,
        "meta_ra_of_asc_node": 314.7485,
        "meta_arg_of_pericenter": 80.8459,
        "meta_mean_anomaly": 279.4221,
        "meta_ephemeris_type": 0,
        "meta_classification_type": "U",
        "meta_norad_cat_id": 59065,
        "meta_element_set_no": 999,
        "meta_rev_at_epoch": 9944,
        "meta_bstar": 0.00041847,
        "meta_mean_motion_dot": 0.00017161,
        "meta_mean_motion_ddot": 0,
        "tle_line1": "1 59065U 24039Q   25343.87607310  .00017161  00000+0  41847-3 0  9994",
        "tle_line2": "2 59065  97.4638 314.7485 0012677  80.8459 279.4221 15.40873892 99443"
      },
      "geometry": {
        "type": "Point",
        "coordinates": [
          -49.61105187376429,
          31.989143826265153
        ]
      }
    },
    {
      "type": "Feature",
      "properties": {
        "norad_id": 59371,
        "name": "RESURS-P 4",
        "group": "resource",
        "lat": -73.6621125525324,
        "lon": 84.83211296153993,
        "alt_km": 478.1058066185433,
        "timestamp": "2025-12-10T04:57:29.263525+00:00",
        "meta_object_name": "RESURS-P 4",
        "meta_object_id": "2024-061A",
        "meta_epoch": "2025-12-09T20:00:33.810624",
        "meta_mean_motion": 15.32049848,
        "meta_eccentricity": 0.0001728,
        "meta_inclination": 97.2543,
        "meta_ra_of_asc_node": 290.2233,
        "meta_arg_of_pericenter": 53.0594,
        "meta_mean_anomaly": 307.0806,
        "meta_ephemeris_type": 0,
        "meta_classification_type": "U",
        "meta_norad_cat_id": 59371,
        "meta_element_set_no": 999,
        "meta_rev_at_epoch": 9476,
        "meta_bstar": 0.00020051,
        "meta_mean_motion_dot": 6.128e-05,
        "meta_mean_motion_ddot": 0,
        "tle_line1": "1 59371U 24061A   25343.83372466  .00006128  00000+0  20051-3 0  9991",
        "tle_line2": "2 59371  97.2543 290.2233 0001728  53.0594 307.0806 15.32049848 94766"
      },
      "geometry": {
        "type": "Point",
        "coordinates": [
          84.83211296153993,
          -73.6621125525324
        ]
      }
    },
    {
      "type": "Feature",
      "properties": {
        "norad_id": 59625,
        "name": "LEGION 1",
        "group": "resource",
        "lat": -79.29709763272452,
        "lon": -165.48246569946187,
        "alt_km": 522.7994336738511,
        "timestamp": "2025-12-10T04:57:29.263535+00:00",
        "meta_object_name": "LEGION 1",
        "meta_object_id": "2024-081A",
        "meta_epoch": "2025-12-09T19:53:09.484800",
        "meta_mean_motion": 15.16435092,
        "meta_eccentricity": 0.0004209,
        "meta_inclination": 97.5211,
        "meta_ra_of_asc_node": 58.4917,
        "meta_arg_of_pericenter": 330.0546,
        "meta_mean_anomaly": 30.0446,
        "meta_ephemeris_type": 0,
        "meta_classification_type": "U",
        "meta_norad_cat_id": 59625,
        "meta_element_set_no": 999,
        "meta_rev_at_epoch": 8883,
        "meta_bstar": 0.00043732,
        "meta_mean_motion_dot": 8.441e-05,
        "meta_mean_motion_ddot": 0,
        "tle_line1": "1 59625U 24081A   25343.82858200  .00008441  00000+0  43732-3 0  9990",
        "tle_line2": "2 59625  97.5211  58.4917 0004209 330.0546  30.0446 15.16435092 88834"
      },
      "geometry": {
        "type": "Point",
        "coordinates": [
          -165.48246569946187,
          -79.29709763272452
        ]
      }
    }
  ]
}